SL-14 R/B               
1 16792U 86046B   26069.54823249  .00000570  00000+0  62825-4 0  9997
2 16792  82.4783  79.3703 0022025 222.3904 137.5612 14.85591236126537
SL-14 R/B               
1 16882U 86055B   26069.13376914  .00000499  00000+0  54744-4 0  9995
2 16882  82.5201 126.2569 0018152 334.9966  54.8272 14.85643046119430
AJISAI (EGS)            
1 16908U 86061A   26069.54278109 -.00000106  00000+0 -60183-4 0  9994
2 16908  50.0081  90.7244 0011270 289.2407 248.6602 12.44515643468101
SL-14 R/B               
1 17567U 87024B   26069.51398965  .00000545  00000+0  59325-4 0  9997
2 17567  82.5247  91.9888 0016704 256.9495 102.9857 14.86132862 88253
COSMOS 1833             
1 17589U 87027A   26069.14343509 -.00000178  00000+0 -69432-4 0  9991
2 17589  70.9223 325.0654 0024249 213.9072 146.0500 14.13054713 10382
SL-16 R/B               
1 17590U 87027B   26068.97462516  .00000094  00000+0  70274-4 0  9994
2 17590  71.0012 275.8951 0003434 142.0630 218.0736 14.17165848 15381
SL-14 R/B               
1 17912U 87038B   26069.10519817  .00000515  00000+0  56876-4 0  9997
2 17912  82.5000 296.4165 0019718 159.1105 201.0922 14.85369670 79290
COSMOS 1844             
1 17973U 87041A   26069.31955475 -.00000156  00000+0 -55647-4 0  9993
2 17973  70.8999  32.8460 0030057  16.8031 343.4079 14.14552019  3676
SL-14 R/B               
1 18153U 87055B   26069.21675502  .00000698  00000+0  77508-4 0  9997
2 18153  82.5031 348.5347 0021120  16.0845 344.1037 14.85630376 70016
COSMOS 1867             
1 18187U 87060A   26069.07002527 -.00000006  00000+0  35470-4 0  9991
2 18187  65.0112 305.6406 0014491 278.6825  81.2618 14.31503117 19993
SL-14 R/B               
1 18749U 88001B   26069.48153071  .00000746  00000+0  83395-4 0  9996
2 18749  82.5155 194.6155 0016896 232.9410 127.0262 14.85529073 42144
COSMOS 1933             
1 18958U 88020A   26069.51522301  .00005591  00000+0  27363-3 0  9994
2 18958  82.5100 250.0946 0003951 177.9478 182.1773 15.17991340 50358
