CCSDS_OMM_VERS = 2.0
CREATION_DATE  = 
ORIGINATOR     = 

OBJECT_NAME    = SL-14 R/B
OBJECT_ID      = 1986-046B
CENTER_NAME    = EARTH
REF_FRAME      = TEME
TIME_SYSTEM    = UTC
MEAN_ELEMENT_THEORY = SGP/SGP4

EPOCH          = 2026-03-10T13:09:27.287136
MEAN_MOTION    = 14.85591236
ECCENTRICITY   = .0022025
INCLINATION    = 82.4783
RA_OF_ASC_NODE = 79.3703
ARG_OF_PERICENTER = 222.3904
MEAN_ANOMALY   = 137.5612

EPHEMERIS_TYPE = 0
CLASSIFICATION_TYPE = U
NORAD_CAT_ID   = 16792
ELEMENT_SET_NO = 999
REV_AT_EPOCH   = 12653
BSTAR          = .62825E-4
MEAN_MOTION_DOT = .57E-5
MEAN_MOTION_DDOT = 0

CCSDS_OMM_VERS = 2.0
CREATION_DATE  = 
ORIGINATOR     = 

OBJECT_NAME    = SL-14 R/B
OBJECT_ID      = 1986-055B
CENTER_NAME    = EARTH
REF_FRAME      = TEME
TIME_SYSTEM    = UTC
MEAN_ELEMENT_THEORY = SGP/SGP4

EPOCH          = 2026-03-10T03:12:37.653696
MEAN_MOTION    = 14.85643046
ECCENTRICITY   = .00181527
INCLINATION    = 82.5201
RA_OF_ASC_NODE = 126.2569
ARG_OF_PERICENTER = 334.9966
MEAN_ANOMALY   = 54.8272

EPHEMERIS_TYPE = 0
CLASSIFICATION_TYPE = U
NORAD_CAT_ID   = 16882
ELEMENT_SET_NO = 999
REV_AT_EPOCH   = 11943
BSTAR          = .54743761E-4
MEAN_MOTION_DOT = .499E-5
MEAN_MOTION_DDOT = 0

CCSDS_OMM_VERS = 2.0
CREATION_DATE  = 
ORIGINATOR     = 

OBJECT_NAME    = AJISAI (EGS)
OBJECT_ID      = 1986-061A
CENTER_NAME    = EARTH
REF_FRAME      = TEME
TIME_SYSTEM    = UTC
MEAN_ELEMENT_THEORY = SGP/SGP4

EPOCH          = 2026-03-10T13:01:36.286176
MEAN_MOTION    = 12.44515643
ECCENTRICITY   = .001127
INCLINATION    = 50.0081
RA_OF_ASC_NODE = 90.7244
ARG_OF_PERICENTER = 289.2407
MEAN_ANOMALY   = 248.6602

EPHEMERIS_TYPE = 0
CLASSIFICATION_TYPE = U
NORAD_CAT_ID   = 16908
ELEMENT_SET_NO = 999
REV_AT_EPOCH   = 46810
BSTAR          = -.60183E-4
MEAN_MOTION_DOT = -.106E-5
MEAN_MOTION_DDOT = 0

CCSDS_OMM_VERS = 2.0
CREATION_DATE  = 
ORIGINATOR     = 

OBJECT_NAME    = SL-14 R/B
OBJECT_ID      = 1987-024B
CENTER_NAME    = EARTH
REF_FRAME      = TEME
TIME_SYSTEM    = UTC
MEAN_ELEMENT_THEORY = SGP/SGP4

EPOCH          = 2026-03-10T12:20:08.705760
MEAN_MOTION    = 14.86132862
ECCENTRICITY   = .0016704
INCLINATION    = 82.5247
RA_OF_ASC_NODE = 91.9888
ARG_OF_PERICENTER = 256.9495
MEAN_ANOMALY   = 102.9857

EPHEMERIS_TYPE = 0
CLASSIFICATION_TYPE = U
NORAD_CAT_ID   = 17567
ELEMENT_SET_NO = 999
REV_AT_EPOCH   = 8825
BSTAR          = .59325E-4
MEAN_MOTION_DOT = .545E-5
MEAN_MOTION_DDOT = 0

CCSDS_OMM_VERS = 2.0
CREATION_DATE  = 
ORIGINATOR     = 

OBJECT_NAME    = COSMOS 1833
OBJECT_ID      = 1987-027A
CENTER_NAME    = EARTH
REF_FRAME      = TEME
TIME_SYSTEM    = UTC
MEAN_ELEMENT_THEORY = SGP/SGP4

EPOCH          = 2026-03-10T03:26:32.791776
MEAN_MOTION    = 14.13054713
ECCENTRICITY   = .00242498
INCLINATION    = 70.9223
RA_OF_ASC_NODE = 325.0654
ARG_OF_PERICENTER = 213.9072
MEAN_ANOMALY   = 146.0500

EPHEMERIS_TYPE = 0
CLASSIFICATION_TYPE = U
NORAD_CAT_ID   = 17589
ELEMENT_SET_NO = 999
REV_AT_EPOCH   = 1038
BSTAR          = -.69431859E-4
MEAN_MOTION_DOT = -.178E-5
MEAN_MOTION_DDOT = 0

CCSDS_OMM_VERS = 2.0
CREATION_DATE  = 
ORIGINATOR     = 

OBJECT_NAME    = SL-16 R/B
OBJECT_ID      = 1987-027B
CENTER_NAME    = EARTH
REF_FRAME      = TEME
TIME_SYSTEM    = UTC
MEAN_ELEMENT_THEORY = SGP/SGP4

EPOCH          = 2026-03-09T23:23:27.613824
MEAN_MOTION    = 14.17165848
ECCENTRICITY   = .0003434
INCLINATION    = 71.0012
RA_OF_ASC_NODE = 275.8951
ARG_OF_PERICENTER = 142.0630
MEAN_ANOMALY   = 218.0736

EPHEMERIS_TYPE = 0
CLASSIFICATION_TYPE = U
NORAD_CAT_ID   = 17590
ELEMENT_SET_NO = 999
REV_AT_EPOCH   = 1538
BSTAR          = .70274E-4
MEAN_MOTION_DOT = .94E-6
MEAN_MOTION_DDOT = 0

CCSDS_OMM_VERS = 2.0
CREATION_DATE  = 
ORIGINATOR     = 

OBJECT_NAME    = SL-14 R/B
OBJECT_ID      = 1987-038B
CENTER_NAME    = EARTH
REF_FRAME      = TEME
TIME_SYSTEM    = UTC
MEAN_ELEMENT_THEORY = SGP/SGP4

EPOCH          = 2026-03-10T02:31:29.121888
MEAN_MOTION    = 14.85369670
ECCENTRICITY   = .00197181
INCLINATION    = 82.5000
RA_OF_ASC_NODE = 296.4165
ARG_OF_PERICENTER = 159.1105
MEAN_ANOMALY   = 201.0922

EPHEMERIS_TYPE = 0
CLASSIFICATION_TYPE = U
NORAD_CAT_ID   = 17912
ELEMENT_SET_NO = 999
REV_AT_EPOCH   = 7929
BSTAR          = .56876285E-4
MEAN_MOTION_DOT = .515E-5
MEAN_MOTION_DDOT = 0

CCSDS_OMM_VERS = 2.0
CREATION_DATE  = 
ORIGINATOR     = 

OBJECT_NAME    = COSMOS 1844
OBJECT_ID      = 1987-041A
CENTER_NAME    = EARTH
REF_FRAME      = TEME
TIME_SYSTEM    = UTC
MEAN_ELEMENT_THEORY = SGP/SGP4

EPOCH          = 2026-03-10T07:40:09.530400
MEAN_MOTION    = 14.14552019
ECCENTRICITY   = .0030057
INCLINATION    = 70.8999
RA_OF_ASC_NODE = 32.8460
ARG_OF_PERICENTER = 16.8031
MEAN_ANOMALY   = 343.4079

EPHEMERIS_TYPE = 0
CLASSIFICATION_TYPE = U
NORAD_CAT_ID   = 17973
ELEMENT_SET_NO = 999
REV_AT_EPOCH   = 367
BSTAR          = -.55647E-4
MEAN_MOTION_DOT = -.156E-5
MEAN_MOTION_DDOT = 0

CCSDS_OMM_VERS = 2.0
CREATION_DATE  = 
ORIGINATOR     = 

OBJECT_NAME    = SL-14 R/B
OBJECT_ID      = 1987-055B
CENTER_NAME    = EARTH
REF_FRAME      = TEME
TIME_SYSTEM    = UTC
MEAN_ELEMENT_THEORY = SGP/SGP4

EPOCH          = 2026-03-10T05:12:07.633728
MEAN_MOTION    = 14.85630376
ECCENTRICITY   = .00211201
INCLINATION    = 82.5031
RA_OF_ASC_NODE = 348.5347
ARG_OF_PERICENTER = 16.0845
MEAN_ANOMALY   = 344.1037

EPHEMERIS_TYPE = 0
CLASSIFICATION_TYPE = U
NORAD_CAT_ID   = 18153
ELEMENT_SET_NO = 999
REV_AT_EPOCH   = 7001
BSTAR          = .77508186E-4
MEAN_MOTION_DOT = .698E-5
MEAN_MOTION_DDOT = 0

CCSDS_OMM_VERS = 2.0
CREATION_DATE  = 
ORIGINATOR     = 

OBJECT_NAME    = COSMOS 1867
OBJECT_ID      = 1987-060A
CENTER_NAME    = EARTH
REF_FRAME      = TEME
TIME_SYSTEM    = UTC
MEAN_ELEMENT_THEORY = SGP/SGP4

EPOCH          = 2026-03-10T01:40:50.183328
MEAN_MOTION    = 14.31503117
ECCENTRICITY   = .00144912
INCLINATION    = 65.0112
RA_OF_ASC_NODE = 305.6406
ARG_OF_PERICENTER = 278.6825
MEAN_ANOMALY   = 81.2618

EPHEMERIS_TYPE = 0
CLASSIFICATION_TYPE = U
NORAD_CAT_ID   = 18187
ELEMENT_SET_NO = 999
REV_AT_EPOCH   = 1999
BSTAR          = .35470246E-4
MEAN_MOTION_DOT = -.6E-7
MEAN_MOTION_DDOT = 0

CCSDS_OMM_VERS = 2.0
CREATION_DATE  = 
ORIGINATOR     = 

OBJECT_NAME    = SL-14 R/B
OBJECT_ID      = 1988-001B
CENTER_NAME    = EARTH
REF_FRAME      = TEME
TIME_SYSTEM    = UTC
MEAN_ELEMENT_THEORY = SGP/SGP4

EPOCH          = 2026-03-10T11:33:24.253344
MEAN_MOTION    = 14.85529073
ECCENTRICITY   = .0016896
INCLINATION    = 82.5155
RA_OF_ASC_NODE = 194.6155
ARG_OF_PERICENTER = 232.9410
MEAN_ANOMALY   = 127.0262

EPHEMERIS_TYPE = 0
CLASSIFICATION_TYPE = U
NORAD_CAT_ID   = 18749
ELEMENT_SET_NO = 999
REV_AT_EPOCH   = 4214
BSTAR          = .83395E-4
MEAN_MOTION_DOT = .746E-5
MEAN_MOTION_DDOT = 0

CCSDS_OMM_VERS = 2.0
CREATION_DATE  = 
ORIGINATOR     = 

OBJECT_NAME    = COSMOS 1933
OBJECT_ID      = 1988-020A
CENTER_NAME    = EARTH
REF_FRAME      = TEME
TIME_SYSTEM    = UTC
MEAN_ELEMENT_THEORY = SGP/SGP4

EPOCH          = 2026-03-10T12:21:55.268064
MEAN_MOTION    = 15.17991340
ECCENTRICITY   = .0003951
INCLINATION    = 82.5100
RA_OF_ASC_NODE = 250.0946
ARG_OF_PERICENTER = 177.9478
MEAN_ANOMALY   = 182.1773

EPHEMERIS_TYPE = 0
CLASSIFICATION_TYPE = U
NORAD_CAT_ID   = 18958
ELEMENT_SET_NO = 999
REV_AT_EPOCH   = 5035
BSTAR          = .27363E-3
MEAN_MOTION_DOT = .5591E-4
MEAN_MOTION_DDOT = 0

